[{"OBJECT_NAME":"POLYITAN-1","OBJECT_ID":"2014-033AJ","EPOCH":"2026-03-09T22:27:50.258304","MEAN_MOTION":15.29568085,"ECCENTRICITY":0.00093607,"INCLINATION":98.1053,"RA_OF_ASC_NODE":86.0432,"ARG_OF_PERICENTER":127.248,"MEAN_ANOMALY":232.9614,"EPHEMERIS_TYPE":0,"CLASSIFICATION_TYPE":"U","NORAD_CAT_ID":40042,"ELEMENT_SET_NO":999,"REV_AT_EPOCH":63840,"BSTAR":0.00083772474,"MEAN_MOTION_DOT":0.00024003,"MEAN_MOTION_DDOT":0},{"OBJECT_NAME":"STARLINK-32228","OBJECT_ID":"2024-144W","EPOCH":"2026-03-09T16:29:53.233152","MEAN_MOTION":15.30176905,"ECCENTRICITY":0.00011565,"INCLINATION":53.1607,"RA_OF_ASC_NODE":216.7931,"ARG_OF_PERICENTER":99.2553,"MEAN_ANOMALY":260.8579,"EPHEMERIS_TYPE":0,"CLASSIFICATION_TYPE":"U","NORAD_CAT_ID":60445,"ELEMENT_SET_NO":999,"REV_AT_EPOCH":8935,"BSTAR":-1.1178031e-5,"MEAN_MOTION_DOT":-6.9e-6,"MEAN_MOTION_DDOT":0}]
